COSMOS 2361 [-]         
1 25590U 98076A   22202.48322431  .00000057  00000+0  44537-4 0  9994
2 25590  82.9342 181.0036 0032895 112.8123  34.5634 13.73023563181205
COSMOS 2378 [-]         
1 26818U 01023A   22201.82503262  .00000016  00000+0  43504-6 0  9994
2 26818  82.9267 199.4662 0034377  62.8844 297.5812 13.73971829 58898
COSMOS 2389 [-]         
1 27436U 02026A   22201.90661970  .00000054  00000+0  40931-4 0  9996
2 27436  82.9521 145.2484 0044986 282.9905 134.9131 13.74978638 10969
COSMOS 2398 [-]         
1 27818U 03023A   22201.81045547  .00000079  00000+0  69994-4 0  9991
2 27818  82.9491 107.0291 0030823 321.5848  38.3108 13.72214199957966
COSMOS 2407 [+]         
1 28380U 04028A   22201.88096178  .00000051  00000+0  36876-4 0  9998
2 28380  82.9594  51.6786 0038040 284.9619  74.7314 13.76116958903754
COSMOS 2414 [+]         
1 28521U 05002A   22202.49959027  .00000059  00000+0  35622-4 0  9993
2 28521  82.9487  42.4929 0041667  76.9597 283.6218 13.87660741886279
COSMOS 2429 [-]         
1 32052U 07038A   22202.42976447  .00000069  00000+0  56413-4 0  9998
2 32052  82.9808 177.2783 0036960 259.0907 100.6090 13.74964863745665
COSMOS 2454 [-]         
1 35635U 09039A   22202.35379114  .00000059  00000+0  35351-4 0  9998
2 35635  82.9551  28.8862 0020106  24.8716 335.3414 13.89690534659400
COSMOS 2463 [+]         
1 36519U 10017A   22202.14037111  .00000048  00000+0  35861-4 0  9997
2 36519  82.9587 218.0568 0037387 128.1090 297.3275 13.71477490612405
